start=new Date('2023-04-02T00:00:00.000Z').valueOf();
sats=[{"SEMIMAJOR_AXIS":"6925.424","OBJECT_TYPE":"PAYLOAD","OBJECT_ID":"2020-062A","GP_ID":"229242775","PERIAPSIS":"546.180","REF_FRAME":"TEME","BSTAR":"0.00112460000000","MEAN_ANOMALY":"274.1357","PERIOD":"95.594","CLASSIFICATION_TYPE":"U","TLE_LINE2":"2 46325  53.0526 109.6885 0001602  85.9815 274.1357 15.06375234143783","COUNTRY_CODE":"US","EPHEMERIS_TYPE":"0","MEAN_ELEMENT_THEORY":"SGP4","MEAN_MOTION":"15.06375234","FILE":"3877270","ECCENTRICITY":"0.00016020","NORAD_CAT_ID":"46325","REV_AT_EPOCH":"14378","APOAPSIS":"548.399","INCLINATION":"53.0526","CENTER_NAME":"EARTH","EPOCH":"2023-04-01T10:12:28.687392","SITE":"AFETR","LAUNCH_DATE":"2020-09-03","OBJECT_NAME":"STARLINK-1734","ARG_OF_PERICENTER":"85.9815","DECAY_DATE":null,"ELEMENT_SET_NO":"999","RCS_SIZE":"LARGE","TLE_LINE1":"1 46325U 20062A   23091.42533203  .00016498  00000-0  11246-2 0  9991","MEAN_MOTION_DDOT":"0.0000000000000","TIME_SYSTEM":"UTC","RA_OF_ASC_NODE":"109.6885","MEAN_MOTION_DOT":"0.00016498"},{"REV_AT_EPOCH":"14261","NORAD_CAT_ID":"46326","ECCENTRICITY":"0.00014570","FILE":"3877516","SITE":"AFETR","EPOCH":"2023-04-01T21:17:58.128576","INCLINATION":"53.0547","CENTER_NAME":"EARTH","APOAPSIS":"548.210","REF_FRAME":"TEME","BSTAR":"0.00064013000000","GP_ID":"229274305","PERIAPSIS":"546.192","OBJECT_ID":"2020-062B","OBJECT_TYPE":"PAYLOAD","SEMIMAJOR_AXIS":"6925.336","MEAN_MOTION":"15.06404005","MEAN_ELEMENT_THEORY":"SGP4","CLASSIFICATION_TYPE":"U","TLE_LINE2":"2 46326  53.0547 152.8554 0001457  83.9635 276.1520 15.06404005142610","COUNTRY_CODE":"US","EPHEMERIS_TYPE":"0","PERIOD":"95.592","MEAN_ANOMALY":"276.1520","MEAN_MOTION_DDOT":"0.0000000000000","MEAN_MOTION_DOT":"0.00009267","RA_OF_ASC_NODE":"152.8554","TIME_SYSTEM":"UTC","LAUNCH_DATE":"2020-09-03","TLE_LINE1":"1 46326U 20062B   23091.88747834  .00009267  00000-0  64013-3 0  9996","RCS_SIZE":"LARGE","ELEMENT_SET_NO":"999","DECAY_DATE":null,"ARG_OF_PERICENTER":"83.9635","OBJECT_NAME":"STARLINK-1654"},{"SEMIMAJOR_AXIS":"6925.165","OBJECT_ID":"2020-062C","OBJECT_TYPE":"PAYLOAD","GP_ID":"229274055","PERIAPSIS":"546.069","REF_FRAME":"TEME","BSTAR":"0.00200940000000","MEAN_ANOMALY":"272.8910","COUNTRY_CODE":"US","TLE_LINE2":"2 46327  53.0537 153.7017 0001387  87.2238 272.8910 15.06459985142570","CLASSIFICATION_TYPE":"U","EPHEMERIS_TYPE":"0","PERIOD":"95.588","MEAN_MOTION":"15.06459985","MEAN_ELEMENT_THEORY":"SGP4","FILE":"3877516","ECCENTRICITY":"0.00013870","REV_AT_EPOCH":"14257","NORAD_CAT_ID":"46327","INCLINATION":"53.0537","CENTER_NAME":"EARTH","APOAPSIS":"547.990","EPOCH":"2023-04-01T15:27:32.808672","SITE":"AFETR","LAUNCH_DATE":"2020-09-03","ARG_OF_PERICENTER":"87.2238","OBJECT_NAME":"STARLINK-1673","DECAY_DATE":null,"ELEMENT_SET_NO":"999","RCS_SIZE":"LARGE","TLE_LINE1":"1 46327U 20062C   23091.64412973  .00029824  00000-0  20094-2 0  9995","MEAN_MOTION_DDOT":"0.0000000000000","TIME_SYSTEM":"UTC","MEAN_MOTION_DOT":"0.00029824","RA_OF_ASC_NODE":"153.7017"},{"MEAN_MOTION_DDOT":"0.0000000000000","TIME_SYSTEM":"UTC","RA_OF_ASC_NODE":"134.6904","MEAN_MOTION_DOT":"0.00021422","LAUNCH_DATE":"2020-09-03","ELEMENT_SET_NO":"999","DECAY_DATE":null,"TLE_LINE1":"1 46328U 20062D   23091.42487006  .00021422  00000-0  14527-2 0  9991","RCS_SIZE":"LARGE","OBJECT_NAME":"STARLINK-1686","ARG_OF_PERICENTER":"56.3319","NORAD_CAT_ID":"46328","REV_AT_EPOCH":"14282","FILE":"3877270","ECCENTRICITY":"0.00010530","SITE":"AFETR","APOAPSIS":"547.944","INCLINATION":"53.0532","CENTER_NAME":"EARTH","EPOCH":"2023-04-01T10:11:48.773184","PERIAPSIS":"546.486","GP_ID":"229242025","REF_FRAME":"TEME","BSTAR":"0.00145270000000","SEMIMAJOR_AXIS":"6925.350","OBJECT_ID":"2020-062D","OBJECT_TYPE":"PAYLOAD","PERIOD":"95.592","CLASSIFICATION_TYPE":"U","TLE_LINE2":"2 46328  53.0532 134.6904 0001053  56.3319 303.7770 15.06399601142820","COUNTRY_CODE":"US","EPHEMERIS_TYPE":"0","MEAN_ELEMENT_THEORY":"SGP4","MEAN_MOTION":"15.06399601","MEAN_ANOMALY":"303.7770"},{"ARG_OF_PERICENTER":"68.0266","OBJECT_NAME":"STARLINK-1695","DECAY_DATE":null,"ELEMENT_SET_NO":"999","RCS_SIZE":"LARGE","TLE_LINE1":"1 46329U 20062E   23091.39168094  .00023671  00000-0  16020-2 0  9999","LAUNCH_DATE":"2020-09-03","TIME_SYSTEM":"UTC","MEAN_MOTION_DOT":"0.00023671","RA_OF_ASC_NODE":"134.8385","MEAN_MOTION_DDOT":"0.0000000000000","MEAN_ANOMALY":"292.0907","COUNTRY_CODE":"US","TLE_LINE2":"2 46329  53.0528 134.8385 0001729  68.0266 292.0907 15.06415819142813","CLASSIFICATION_TYPE":"U","EPHEMERIS_TYPE":"0","PERIOD":"95.591","MEAN_MOTION":"15.06415819","MEAN_ELEMENT_THEORY":"SGP4","SEMIMAJOR_AXIS":"6925.300","OBJECT_TYPE":"PAYLOAD","OBJECT_ID":"2020-062E","PERIAPSIS":"545.968","GP_ID":"229242276","BSTAR":"0.00160200000000","REF_FRAME":"TEME","INCLINATION":"53.0528","CENTER_NAME":"EARTH","APOAPSIS":"548.362","EPOCH":"2023-04-01T09:24:01.233216","SITE":"AFETR","FILE":"3877270","ECCENTRICITY":"0.00017290","REV_AT_EPOCH":"14281","NORAD_CAT_ID":"46329"},{"SITE":"AFETR","INCLINATION":"53.0530","CENTER_NAME":"EARTH","APOAPSIS":"547.828","EPOCH":"2023-04-01T20:16:54.029856","REV_AT_EPOCH":"14289","NORAD_CAT_ID":"46330","FILE":"3877516","ECCENTRICITY":"0.00008690","COUNTRY_CODE":"US","TLE_LINE2":"2 46330  53.0530 132.8055 0000869  52.8542 307.2526 15.06396020142898","CLASSIFICATION_TYPE":"U","EPHEMERIS_TYPE":"0","PERIOD":"95.592","MEAN_MOTION":"15.06396020","MEAN_ELEMENT_THEORY":"SGP4","MEAN_ANOMALY":"307.2526","GP_ID":"229273806","PERIAPSIS":"546.624","BSTAR":"0.00093027000000","REF_FRAME":"TEME","SEMIMAJOR_AXIS":"6925.361","OBJECT_ID":"2020-062F","OBJECT_TYPE":"PAYLOAD","TIME_SYSTEM":"UTC","RA_OF_ASC_NODE":"132.8055","MEAN_MOTION_DOT":"0.00013600","MEAN_MOTION_DDOT":"0.0000000000000","DECAY_DATE":null,"ELEMENT_SET_NO":"999","TLE_LINE1":"1 46330U 20062F   23091.84506979  .00013600  00000-0  93027-3 0  9993","RCS_SIZE":"LARGE","ARG_OF_PERICENTER":"52.8542","OBJECT_NAME":"STARLINK-1710","LAUNCH_DATE":"2020-09-03"},{"TLE_LINE2":"2 46331  53.0547 152.6512 0001654  70.5823 289.5345 15.06429142142610","CLASSIFICATION_TYPE":"U","COUNTRY_CODE":"US","EPHEMERIS_TYPE":"0","PERIOD":"95.590","MEAN_MOTION":"15.06429142","MEAN_ELEMENT_THEORY":"SGP4","MEAN_ANOMALY":"289.5345","GP_ID":"229274556","PERIAPSIS":"545.979","REF_FRAME":"TEME","BSTAR":"0.00082478000000","SEMIMAJOR_AXIS":"6925.259","OBJECT_TYPE":"PAYLOAD","OBJECT_ID":"2020-062G","SITE":"AFETR","INCLINATION":"53.0547","CENTER_NAME":"EARTH","APOAPSIS":"548.270","EPOCH":"2023-04-01T21:07:18.196608","REV_AT_EPOCH":"14261","NORAD_CAT_ID":"46331","FILE":"3877516","ECCENTRICITY":"0.00016540","DECAY_DATE":null,"ELEMENT_SET_NO":"999","RCS_SIZE":"LARGE","TLE_LINE1":"1 46331U 20062G   23091.88007172  .00012034  00000-0  82478-3 0  9997","ARG_OF_PERICENTER":"70.5823","OBJECT_NAME":"STARLINK-1719","LAUNCH_DATE":"2020-09-03","TIME_SYSTEM":"UTC","MEAN_MOTION_DOT":"0.00012034","RA_OF_ASC_NODE":"152.6512","MEAN_MOTION_DDOT":"0.0000000000000"},{"RCS_SIZE":"LARGE","TLE_LINE1":"1 46332U 20062H   23091.57308383  .00039254  00000-0  21848-2 0  9998","ELEMENT_SET_NO":"999","DECAY_DATE":null,"ARG_OF_PERICENTER":"343.3361","OBJECT_NAME":"STARLINK-1721","LAUNCH_DATE":"2020-09-03","MEAN_MOTION_DOT":"0.00039254","RA_OF_ASC_NODE":"152.0815","TIME_SYSTEM":"UTC","MEAN_MOTION_DDOT":"0.0000000000000","MEAN_MOTION":"15.13287956","MEAN_ELEMENT_THEORY":"SGP4","COUNTRY_CODE":"US","TLE_LINE2":"2 46332  53.0528 152.0815 0003637 343.3361  16.7511 15.13287956142596","CLASSIFICATION_TYPE":"U","EPHEMERIS_TYPE":"0","PERIOD":"95.157","MEAN_ANOMALY":"16.7511","REF_FRAME":"TEME","BSTAR":"0.00218480000000","PERIAPSIS":"523.672","GP_ID":"229274806","OBJECT_TYPE":"PAYLOAD","OBJECT_ID":"2020-062H","SEMIMAJOR_AXIS":"6904.318","SITE":"AFETR","EPOCH":"2023-04-01T13:45:14.442912","INCLINATION":"53.0528","CENTER_NAME":"EARTH","APOAPSIS":"528.694","REV_AT_EPOCH":"14259","NORAD_CAT_ID":"46332","ECCENTRICITY":"0.00036370","FILE":"3877516"},{"LAUNCH_DATE":"2020-09-03","RCS_SIZE":"LARGE","TLE_LINE1":"1 46333U 20062J   23091.64050277  .00041452  00000-0  27832-2 0  9995","DECAY_DATE":null,"ELEMENT_SET_NO":"999","OBJECT_NAME":"STARLINK-1723","ARG_OF_PERICENTER":"72.7936","MEAN_MOTION_DDOT":"0.0000000000000","RA_OF_ASC_NODE":"153.7214","MEAN_MOTION_DOT":"0.00041452","TIME_SYSTEM":"UTC","BSTAR":"0.00278320000000","REF_FRAME":"TEME","PERIAPSIS":"546.177","GP_ID":"229275056","OBJECT_TYPE":"PAYLOAD","OBJECT_ID":"2020-062J","SEMIMAJOR_AXIS":"6925.257","MEAN_ELEMENT_THEORY":"SGP4","MEAN_MOTION":"15.06429849","PERIOD":"95.590","TLE_LINE2":"2 46333  53.0537 153.7214 0001364  72.7936 287.3202 15.06429849142576","CLASSIFICATION_TYPE":"U","COUNTRY_CODE":"US","EPHEMERIS_TYPE":"0","MEAN_ANOMALY":"287.3202","NORAD_CAT_ID":"46333","REV_AT_EPOCH":"14257","ECCENTRICITY":"0.00013640","FILE":"3877516","SITE":"AFETR","EPOCH":"2023-04-01T15:22:19.439328","APOAPSIS":"548.067","INCLINATION":"53.0537","CENTER_NAME":"EARTH"},{"LAUNCH_DATE":"2020-09-03","OBJECT_NAME":"STARLINK-1725","ARG_OF_PERICENTER":"67.6209","ELEMENT_SET_NO":"999","DECAY_DATE":null,"TLE_LINE1":"1 46334U 20062K   23091.84140137  .00010930  00000-0  75110-3 0  9993","RCS_SIZE":"LARGE","MEAN_MOTION_DDOT":"0.0000000000000","TIME_SYSTEM":"UTC","RA_OF_ASC_NODE":"133.1031","MEAN_MOTION_DOT":"0.00010930","SEMIMAJOR_AXIS":"6925.289","OBJECT_ID":"2020-062K","OBJECT_TYPE":"PAYLOAD","PERIAPSIS":"545.836","GP_ID":"229274306","BSTAR":"0.00075110000000","REF_FRAME":"TEME","MEAN_ANOMALY":"292.4982","PERIOD":"95.591","TLE_LINE2":"2 46334  53.0532 133.1031 0001904  67.6209 292.4982 15.06419388142880","CLASSIFICATION_TYPE":"U","COUNTRY_CODE":"US","EPHEMERIS_TYPE":"0","MEAN_ELEMENT_THEORY":"SGP4","MEAN_MOTION":"15.06419388","FILE":"3877516","ECCENTRICITY":"0.00019040","NORAD_CAT_ID":"46334","REV_AT_EPOCH":"14288","APOAPSIS":"548.473","CENTER_NAME":"EARTH","INCLINATION":"53.0532","EPOCH":"2023-04-01T20:11:37.078368","SITE":"AFETR"}];
